[{"OBJECT_NAME":"STARLINK-6145","OBJECT_ID":"2023-061R","EPOCH":"2026-03-09T22:00:01.999584","MEAN_MOTION":15.11435499,"ECCENTRICITY":0.00022055,"INCLINATION":42.9996,"RA_OF_ASC_NODE":195.664,"ARG_OF_PERICENTER":277.7301,"MEAN_ANOMALY":146.4947,"EPHEMERIS_TYPE":0,"CLASSIFICATION_TYPE":"U","NORAD_CAT_ID":56389,"ELEMENT_SET_NO":999,"REV_AT_EPOCH":577,"BSTAR":0.0030486512,"MEAN_MOTION_DOT":0.00052606,"MEAN_MOTION_DDOT":0},{"OBJECT_NAME":"PSLV DEB","OBJECT_ID":"2001-049CY","EPOCH":"2026-03-09T18:20:37.296384","MEAN_MOTION":15.08389698,"ECCENTRICITY":0.00190632,"INCLINATION":97.9861,"RA_OF_ASC_NODE":156.2845,"ARG_OF_PERICENTER":340.3269,"MEAN_ANOMALY":19.722,"EPHEMERIS_TYPE":0,"CLASSIFICATION_TYPE":"U","NORAD_CAT_ID":27152,"ELEMENT_SET_NO":999,"REV_AT_EPOCH":30598,"BSTAR":0.00053695108,"MEAN_MOTION_DOT":8.318e-5,"MEAN_MOTION_DDOT":0}]
